{
  "type": "FeatureCollection",
  "features": [
    {
      "type": "Feature",
      "properties": {
        "norad_id": 32207,
        "name": "FENGYUN 1C DEB",
        "group": "fengyun-1c-debris",
        "lat": 64.20081739205929,
        "lon": 147.45788678123398,
        "alt_km": 697.0563775649971,
        "timestamp": "2025-12-13T08:49:15.972488+00:00",
        "meta_object_name": "FENGYUN 1C DEB",
        "meta_object_id": "1999-025CVD",
        "meta_epoch": "2025-12-12T04:00:31.760928",
        "meta_mean_motion": 14.39569701,
        "meta_eccentricity": 0.00852472,
        "meta_inclination": 99.8553,
        "meta_ra_of_asc_node": 305.0027,
        "meta_arg_of_pericenter": 139.3042,
        "meta_mean_anomaly": 236.8167,
        "meta_ephemeris_type": 0,
        "meta_classification_type": "U",
        "meta_norad_cat_id": 32207,
        "meta_element_set_no": 999,
        "meta_rev_at_epoch": 64299,
        "meta_bstar": 0.00048704631,
        "meta_mean_motion_dot": 1.529e-05,
        "meta_mean_motion_ddot": 0,
        "tle_line1": "1 32207U 99025CVD 25346.16703427  .00001529  00000+0  48705-3 0  9992",
        "tle_line2": "2 32207  99.8553 305.0027 0085247 139.3042 236.8167 14.39569701642998"
      },
      "geometry": {
        "type": "Point",
        "coordinates": [
          147.45788678123398,
          64.20081739205929
        ]
      }
    },
    {
      "type": "Feature",
      "properties": {
        "norad_id": 32209,
        "name": "FENGYUN 1C DEB",
        "group": "fengyun-1c-debris",
        "lat": 37.927455033019584,
        "lon": 122.18305747338616,
        "alt_km": 1188.6576415042082,
        "timestamp": "2025-12-13T08:49:15.972498+00:00",
        "meta_object_name": "FENGYUN 1C DEB",
        "meta_object_id": "1999-025CVF",
        "meta_epoch": "2025-12-11T02:40:28.814304",
        "meta_mean_motion": 13.4716101,
        "meta_eccentricity": 0.03331235,
        "meta_inclination": 99.4206,
        "meta_ra_of_asc_node": 292.6227,
        "meta_arg_of_pericenter": 29.3187,
        "meta_mean_anomaly": 332.6194,
        "meta_ephemeris_type": 0,
        "meta_classification_type": "U",
        "meta_norad_cat_id": 32209,
        "meta_element_set_no": 999,
        "meta_rev_at_epoch": 89954,
        "meta_bstar": 0.0038267004,
        "meta_mean_motion_dot": 3.226e-05,
        "meta_mean_motion_ddot": 0,
        "tle_line1": "1 32209U 99025CVF 25345.11144461  .00003226  00000+0  38267-2 0  9992",
        "tle_line2": "2 32209  99.4206 292.6227 0333123  29.3187 332.6194 13.47161010899540"
      },
      "geometry": {
        "type": "Point",
        "coordinates": [
          122.18305747338616,
          37.927455033019584
        ]
      }
    },
    {
      "type": "Feature",
      "properties": {
        "norad_id": 32212,
        "name": "FENGYUN 1C DEB",
        "group": "fengyun-1c-debris",
        "lat": -0.4742037896113422,
        "lon": -95.94659216026507,
        "alt_km": 782.3768735044941,
        "timestamp": "2025-12-13T08:49:15.972509+00:00",
        "meta_object_name": "FENGYUN 1C DEB",
        "meta_object_id": "1999-025CVJ",
        "meta_epoch": "2025-12-12T05:27:47.664864",
        "meta_mean_motion": 14.40319948,
        "meta_eccentricity": 0.01379946,
        "meta_inclination": 99.5732,
        "meta_ra_of_asc_node": 82.8595,
        "meta_arg_of_pericenter": 80.0007,
        "meta_mean_anomaly": 311.5035,
        "meta_ephemeris_type": 0,
        "meta_classification_type": "U",
        "meta_norad_cat_id": 32212,
        "meta_element_set_no": 999,
        "meta_rev_at_epoch": 96054,
        "meta_bstar": 0.00070927237,
        "meta_mean_motion_dot": 2.459e-05,
        "meta_mean_motion_ddot": 0,
        "tle_line1": "1 32212U 99025CVJ 25346.22763501  .00002459  00000+0  70927-3 0  9998",
        "tle_line2": "2 32212  99.5732  82.8595 0137994  80.0007 311.5035 14.40319948960547"
      },
      "geometry": {
        "type": "Point",
        "coordinates": [
          -95.94659216026507,
          -0.4742037896113422
        ]
      }
    },
    {
      "type": "Feature",
      "properties": {
        "norad_id": 32214,
        "name": "FENGYUN 1C DEB",
        "group": "fengyun-1c-debris",
        "lat": -74.22248054659408,
        "lon": 158.6560953538483,
        "alt_km": 1039.232748907746,
        "timestamp": "2025-12-13T08:49:15.972519+00:00",
        "meta_object_name": "FENGYUN 1C DEB",
        "meta_object_id": "1999-025CVL",
        "meta_epoch": "2025-12-12T00:38:51.787392",
        "meta_mean_motion": 13.90525289,
        "meta_eccentricity": 0.0188558,
        "meta_inclination": 99.0438,
        "meta_ra_of_asc_node": 11.6619,
        "meta_arg_of_pericenter": 41.1528,
        "meta_mean_anomaly": 350.1279,
        "meta_ephemeris_type": 0,
        "meta_classification_type": "U",
        "meta_norad_cat_id": 32214,
        "meta_element_set_no": 999,
        "meta_rev_at_epoch": 62412,
        "meta_bstar": 0.0062452,
        "meta_mean_motion_dot": 8.939e-05,
        "meta_mean_motion_ddot": 0,
        "tle_line1": "1 32214U 99025CVL 25346.02698828  .00008939  00000+0  62452-2 0  9999",
        "tle_line2": "2 32214  99.0438  11.6619 0188558  41.1528 350.1279 13.90525289624123"
      },
      "geometry": {
        "type": "Point",
        "coordinates": [
          158.6560953538483,
          -74.22248054659408
        ]
      }
    },
    {
      "type": "Feature",
      "properties": {
        "norad_id": 32218,
        "name": "FENGYUN 1C DEB",
        "group": "fengyun-1c-debris",
        "lat": -79.77149265292016,
        "lon": -119.45096523122236,
        "alt_km": 753.9344796151709,
        "timestamp": "2025-12-13T08:49:15.972529+00:00",
        "meta_object_name": "FENGYUN 1C DEB",
        "meta_object_id": "1999-025CVQ",
        "meta_epoch": "2025-12-12T09:01:04.254816",
        "meta_mean_motion": 14.55483404,
        "meta_eccentricity": 0.00631955,
        "meta_inclination": 98.8122,
        "meta_ra_of_asc_node": 180.2188,
        "meta_arg_of_pericenter": 68.5908,
        "meta_mean_anomaly": 53.1957,
        "meta_ephemeris_type": 0,
        "meta_classification_type": "U",
        "meta_norad_cat_id": 32218,
        "meta_element_set_no": 999,
        "meta_rev_at_epoch": 96227,
        "meta_bstar": 0.0012558302,
        "meta_mean_motion_dot": 5.564e-05,
        "meta_mean_motion_ddot": 0,
        "tle_line1": "1 32218U 99025CVQ 25346.37574369  .00005564  00000+0  12558-2 0  9997",
        "tle_line2": "2 32218  98.8122 180.2188 0063195  68.5908  53.1957 14.55483404962270"
      },
      "geometry": {
        "type": "Point",
        "coordinates": [
          -119.45096523122236,
          -79.77149265292016
        ]
      }
    },
    {
      "type": "Feature",
      "properties": {
        "norad_id": 32221,
        "name": "FENGYUN 1C DEB",
        "group": "fengyun-1c-debris",
        "lat": 7.812267375409123,
        "lon": -41.507398361042625,
        "alt_km": 607.3828896018022,
        "timestamp": "2025-12-13T08:49:15.972539+00:00",
        "meta_object_name": "FENGYUN 1C DEB",
        "meta_object_id": "1999-025CVT",
        "meta_epoch": "2025-12-12T08:59:43.035360",
        "meta_mean_motion": 14.58695293,
        "meta_eccentricity": 0.01467707,
        "meta_inclination": 98.5654,
        "meta_ra_of_asc_node": 136.2843,
        "meta_arg_of_pericenter": 146.8533,
        "meta_mean_anomaly": 214.1968,
        "meta_ephemeris_type": 0,
        "meta_classification_type": "U",
        "meta_norad_cat_id": 32221,
        "meta_element_set_no": 999,
        "meta_rev_at_epoch": 97192,
        "meta_bstar": 0.0006364895,
        "meta_mean_motion_dot": 3.392e-05,
        "meta_mean_motion_ddot": 0,
        "tle_line1": "1 32221U 99025CVT 25346.37480365  .00003392  00000+0  63649-3 0  9998",
        "tle_line2": "2 32221  98.5654 136.2843 0146770 146.8533 214.1968 14.58695293971922"
      },
      "geometry": {
        "type": "Point",
        "coordinates": [
          -41.507398361042625,
          7.812267375409123
        ]
      }
    },
    {
      "type": "Feature",
      "properties": {
        "norad_id": 32223,
        "name": "FENGYUN 1C DEB",
        "group": "fengyun-1c-debris",
        "lat": -25.63307238642693,
        "lon": 70.71312666354517,
        "alt_km": 795.8876928541331,
        "timestamp": "2025-12-13T08:49:15.972549+00:00",
        "meta_object_name": "FENGYUN 1C DEB",
        "meta_object_id": "1999-025CVV",
        "meta_epoch": "2025-12-12T04:20:53.532096",
        "meta_mean_motion": 14.20890687,
        "meta_eccentricity": 0.00468069,
        "meta_inclination": 98.8387,
        "meta_ra_of_asc_node": 65.245,
        "meta_arg_of_pericenter": 319.1378,
        "meta_mean_anomaly": 69.6947,
        "meta_ephemeris_type": 0,
        "meta_classification_type": "U",
        "meta_norad_cat_id": 32223,
        "meta_element_set_no": 999,
        "meta_rev_at_epoch": 64216,
        "meta_bstar": 0.0020402533,
        "meta_mean_motion_dot": 4.42e-05,
        "meta_mean_motion_ddot": 0,
        "tle_line1": "1 32223U 99025CVV 25346.18117514  .00004420  00000+0  20403-2 0  9995",
        "tle_line2": "2 32223  98.8387  65.2450 0046806 319.1378  69.6947 14.20890687642160"
      },
      "geometry": {
        "type": "Point",
        "coordinates": [
          70.71312666354517,
          -25.63307238642693
        ]
      }
    }
  ]
}